CS1                     
1 49261U 21088B   26068.75173904  .00015722  00000+0  51176-3 0  9998
2 49261  97.3882 132.1684 0014129  78.0335 282.2490 15.31848439245182
STARLINK-34062          
1 64021U 25101AD  26068.20594286  .00018247  00000+0  67062-3 0  9995
2 64021  43.0031   0.4821 0001326 270.5758  89.4941 15.27597112 46989
